ONEWEB-0346             
1 49212U 21083AC  24070.87895931  .00000007  00000+0 -15531-4 0  9991
2 49212  87.9208 140.3433 0002422 109.4013 250.7381 13.18686626122109
ONEWEB-0348             
1 49213U 21083AD  24070.71362986  .00000085  00000+0  17602-3 0  9999
2 49213  87.9126  79.3201 0002138 110.4017 249.7346 13.20772566128751
ONEWEB-0350             
1 49214U 21083AE  24070.38380401  .00000093  00000+0  21969-3 0  9995
2 49214  87.8952 125.2112 0001943 111.8956 248.2380 13.13467528122139
ONEWEB-0351             
1 49215U 21083AF  24070.48004428  .00000050  00000+0  90462-4 0  9997
2 49215  87.9122  79.3703 0001603  80.4960 279.6355 13.20772604127388
ONEWEB-0352             
1 49216U 21083AG  24070.59329794  .00000367  00000+0  96950-3 0  9994
2 49216  87.8952 125.1976 0001782  94.1084 266.0249 13.13468837123557
ONEWEB-0354             
1 49217U 21083AH  24070.50530097  .00000112  00000+0  24386-3 0  9998
2 49217  87.9126  79.3465 0001648  98.4834 261.6487 13.20772276127424
ONEWEB-0355             
1 49218U 21083AJ  24070.85198515  .00000039  00000+0  72180-4 0  9996
2 49218  87.8952 125.1454 0001825 101.0861 259.0473 13.13469382123466
ONEWEB-0357             
1 49219U 21083AK  24070.72939041 -.00002414  00000+0 -59687-2 0  9996
2 49219  87.9123  79.3233 0001501  97.1722 262.9582 13.20786809128750
